[{"OBJECT_NAME":"COSMOS 2493 (SKRL-756 1)","OBJECT_ID":"2013-078A","EPOCH":"2026-03-09T21:08:46.717728","MEAN_MOTION":15.01584319,"ECCENTRICITY":0.00118545,"INCLINATION":82.4165,"RA_OF_ASC_NODE":358.3033,"ARG_OF_PERICENTER":214.7485,"MEAN_ANOMALY":145.2966,"EPHEMERIS_TYPE":0,"CLASSIFICATION_TYPE":"U","NORAD_CAT_ID":39490,"ELEMENT_SET_NO":999,"REV_AT_EPOCH":66305,"BSTAR":0.00040276291,"MEAN_MOTION_DOT":5.252e-5,"MEAN_MOTION_DDOT":0},{"OBJECT_NAME":"QPS-SAR-9 (SUSANOO-I)","OBJECT_ID":"2025-050A","EPOCH":"2026-03-09T22:44:21.680160","MEAN_MOTION":15.02099025,"ECCENTRICITY":0.00041027,"INCLINATION":42.0195,"RA_OF_ASC_NODE":290.2117,"ARG_OF_PERICENTER":235.6113,"MEAN_ANOMALY":124.4326,"EPHEMERIS_TYPE":0,"CLASSIFICATION_TYPE":"U","NORAD_CAT_ID":63205,"ELEMENT_SET_NO":999,"REV_AT_EPOCH":5403,"BSTAR":0.00053180523,"MEAN_MOTION_DOT":6.925e-5,"MEAN_MOTION_DDOT":0}]
